$GNRMC,120000,A,1000.0000,N,02000.1080,E,,,021026,,,A*60
$GNRMC,120001,A,1000.0125,N,02000.1064,E,,,021026,,,A*6D
$GNRMC,120002,A,1000.0246,N,02000.1015,E,,,021026,,,A*6E
$GNRMC,120003,A,1000.0360,N,02000.0935,E,,,021026,,,A*60
$GNRMC,120004,A,1000.0463,N,02000.0827,E,,,021026,,,A*61
$GNRMC,120005,A,1000.0552,N,02000.0694,E,,,021026,,,A*65
$GNRMC,120006,A,1000.0624,N,02000.0540,E,,,021026,,,A*6E
$GNRMC,120007,A,1000.0677,N,02000.0369,E,,,021026,,,A*64
$GNRMC,120008,A,1000.0709,N,02000.0188,E,,,021026,,,A*6E
$GNRMC,120009,A,1000.0720,N,02000.0000,E,,,021026,,,A*65
$GNRMC,120010,A,1000.0000,N,02000.0000,E,,,021026,,,A*00
$GNRMC,120011,A,1000.0709,N,01959.9812,E,,,021026,,,A*63
$GNRMC,120012,A,1000.0677,N,01959.9631,E,,,021026,,,A*67
$GNRMC,120013,A,1000.0624,N,01959.9460,E,,,021026,,,A*66
$GNRMC,120014,A,1000.0552,N,01959.9306,E,,,021026,,,A*64
$GNRMC,120015,A,1000.0463,N,01959.9173,E,,,021026,,,A*66
$GNRMC,120016,A,1000.0360,N,01959.9065,E,,,021026,,,A*67
$GNRMC,120017,A,1000.0246,N,01959.8985,E,,,021026,,,A*65
$GNRMC,120018,A,1000.0125,N,01959.8936,E,,,021026,,,A*64
$GNRMC,120019,A,1000.0000,N,01959.8920,E,,,021026,,,A*64
$GNRMC,120020,A,0959.9875,N,01959.8936,E,,,021026,,,A*6E
$GNGGA,120021,,,,,0,00,,,,,,,*78
$GNRMC,120040,A,0959.9754,N,01959.8985,E,,,021026,,,A*6C
$GNRMC,120041,A,0959.9640,N,01959.9065,E,,,021026,,,A*6F
$GNRMC,120042,A,0959.9537,N,01959.9173,E,,,021026,,,A*69
$GNRMC,120043,A,0959.9448,N,01959.9306,E,,,021026,,,A*61
$GNRMC,120044,A,0959.9376,N,01959.9460,E,,,021026,,,A*6B
$GNRMC,120045,A,0959.9323,N,01959.9631,E,,,021026,,,A*6C
$GNRMC,120046,A,0959.9291,N,01959.9812,E,,,021026,,,A*68
$GNRMC,120047,A,0959.9280,N,02000.0000,E,,,021026,,,A*6D
$GNRMC,120048,A,0959.9291,N,02000.0188,E,,,021026,,,A*63
$GNRMC,120049,A,0959.9323,N,02000.0369,E,,,021026,,,A*67
